[{"OBJECT_NAME":"SITRO-AIS 8 (ANOKHIN)","OBJECT_ID":"2023-091AD","EPOCH":"2026-03-09T23:44:40.058592","MEAN_MOTION":15.29359179,"ECCENTRICITY":0.0012509,"INCLINATION":97.5169,"RA_OF_ASC_NODE":133.2823,"ARG_OF_PERICENTER":92.0171,"MEAN_ANOMALY":268.2501,"EPHEMERIS_TYPE":0,"CLASSIFICATION_TYPE":"U","NORAD_CAT_ID":57193,"ELEMENT_SET_NO":999,"REV_AT_EPOCH":14927,"BSTAR":0.00064982524,"MEAN_MOTION_DOT":0.00018494,"MEAN_MOTION_DDOT":0},{"OBJECT_NAME":"STARLINK-33657","OBJECT_ID":"2025-063H","EPOCH":"2026-03-09T22:04:35.307840","MEAN_MOTION":15.30209803,"ECCENTRICITY":0.0001778,"INCLINATION":53.16,"RA_OF_ASC_NODE":51.4694,"ARG_OF_PERICENTER":64.4435,"MEAN_ANOMALY":295.6749,"EPHEMERIS_TYPE":0,"CLASSIFICATION_TYPE":"U","NORAD_CAT_ID":63370,"ELEMENT_SET_NO":999,"REV_AT_EPOCH":5474,"BSTAR":0.00090751712,"MEAN_MOTION_DOT":0.00026624,"MEAN_MOTION_DDOT":0}]
